      2.10          N: GNSS NAV DATA                        RINEX VERSION / TYPE
fic2rin                                 04/24/2019 00:19:42 PGM / RUN BY / DATE
                                                            END OF HEADER
26 19  4 23  6  0  0.0 1.831669360399e-04 9.890754881781e-12 0.000000000000e+00
    6.000000000000e+00 7.103125000000e+01 4.765555647378e-09 2.866259658008e+00
    3.725290298462e-06 3.743496374227e-03 3.345310688019e-06 5.153592794418e+03
    1.944000000000e+05-4.284083843231e-08 1.805852291076e+00-3.725290298462e-09
    9.516597832613e-01 3.107812500000e+02 1.658857991351e-01-8.391420964937e-09
    1.617924535908e-10 1.000000000000e+00 2.050000000000e+03 0.000000000000e+00
    2.400000000000e+00 0.000000000000e+00 7.450580596924e-09 6.000000000000e+00
    1.872000000000e+05 4.000000000000e+00
27 19  4 23  6  0  0.0-1.148581504822e-04-8.867573342286e-12 0.000000000000e+00
    1.500000000000e+01-8.009375000000e+01 4.115171413407e-09 1.077527465653e+00
   -4.248693585396e-06 7.041189703159e-03 4.824250936508e-06 5.153642871857e+03
    1.944000000000e+05-5.587935447693e-09 2.875297960890e+00 5.029141902924e-08
    9.787652399923e-01 2.962187500000e+02 4.711569216684e-01-8.094980045554e-09
   -1.946509651369e-10 1.000000000000e+00 2.050000000000e+03 0.000000000000e+00
    2.400000000000e+00 0.000000000000e+00 1.396983861923e-09 1.500000000000e+01
    1.872000000000e+05 4.000000000000e+00
22 19  4 23  6  0  0.0-6.886376067996e-04-6.707523425575e-12 0.000000000000e+00
    7.600000000000e+01 1.484375000000e+01 5.802027392015e-09 3.173281363906e-01
    8.139759302139e-07 7.256814744323e-03 6.813555955887e-06 5.153815864563e+03
    1.944000000000e+05-8.568167686462e-08-1.382109470384e+00-4.097819328308e-08
    9.267780380824e-01 2.346562500000e+02-1.365677711193e+00-8.718220291726e-09
    3.410856361573e-10 1.000000000000e+00 2.050000000000e+03 0.000000000000e+00
    2.400000000000e+00 0.000000000000e+00-1.816079020500e-08 7.600000000000e+01
    1.872000000000e+05 4.000000000000e+00
16 19  4 23  6  0  0.0-3.471272066236e-05-2.842170943040e-12 0.000000000000e+00
    7.700000000000e+01 5.340625000000e+01 4.101599419508e-09 1.951627176900e+00
    2.685934305191e-06 1.083527633455e-02 3.261491656303e-06 5.153562387466e+03
    1.944000000000e+05-2.123415470123e-07 1.916666272866e+00 2.793967723846e-08
    9.832571460468e-01 3.311250000000e+02 5.692998926428e-01-8.122481191087e-09
    7.678891285216e-11 1.000000000000e+00 2.050000000000e+03 0.000000000000e+00
    2.400000000000e+00 0.000000000000e+00-1.071020960808e-08 7.700000000000e+01
    1.872000000000e+05 4.000000000000e+00
24 19  4 23  6  0  0.0-6.514042615891e-05-4.547473508865e-13 0.000000000000e+00
    5.700000000000e+01 8.071875000000e+01 4.766269962847e-09-8.096568254338e-01
    4.103407263756e-06 8.272536215372e-03 1.049600541592e-05 5.153725910187e+03
    1.944000000000e+05 1.732259988785e-07 7.325639597151e-01 8.381903171539e-08
    9.391629577126e-01 1.657812500000e+02 6.051586582586e-01-8.164625803722e-09
   -3.189418566371e-10 1.000000000000e+00 2.050000000000e+03 0.000000000000e+00
    3.400000000000e+00 0.000000000000e+00 2.793967723846e-09 5.700000000000e+01
    1.872000000000e+05 4.000000000000e+00
14 19  4 23  6  0  0.0-8.339714258909e-05 1.477928890381e-12 0.000000000000e+00
    9.600000000000e+01-1.231250000000e+01 4.750912180276e-09 8.478411977719e-01
   -5.606561899185e-07 1.048614771571e-02 8.465722203255e-06 5.153689533234e+03
    1.944000000000e+05-1.378357410431e-07-1.853288069573e-01 3.725290298462e-08
    9.609032794214e-01 2.214062500000e+02-1.943748286335e+00-8.222842514396e-09
   -5.928818387655e-10 1.000000000000e+00 2.050000000000e+03 0.000000000000e+00
    2.400000000000e+00 0.000000000000e+00-9.778887033463e-09 9.600000000000e+01
    1.872000000000e+05 4.000000000000e+00
29 19  4 23  6  0  0.0 2.188268117607e-04-9.094947017729e-12 0.000000000000e+00
    4.100000000000e+01-9.459375000000e+01 3.896590880079e-09 1.747332434335e+00
   -4.874542355537e-06 9.717656066641e-04 4.958361387253e-06 5.153769897461e+03
    1.944000000000e+05 2.607703208923e-08 2.942316603640e+00 2.980232238770e-08
    9.857575641650e-01 2.977812500000e+02 1.616353484411e+00-7.968903365383e-09
   -1.092902666640e-10 1.000000000000e+00 2.050000000000e+03 0.000000000000e+00
    2.400000000000e+00 0.000000000000e+00-9.778887033463e-09 4.100000000000e+01
    1.872000000000e+05 4.000000000000e+00
28 19  4 23  6  0  0.0 7.676049135625e-04 2.273736754432e-13 0.000000000000e+00
    3.800000000000e+01 5.631250000000e+01 4.002666727136e-09 1.912756976863e+00
    2.682209014893e-06 1.908416720107e-02 2.222135663033e-06 5.153701906204e+03
    1.944000000000e+05 4.209578037262e-07 1.920647926261e+00-2.179294824600e-07
    9.822018891083e-01 3.442500000000e+02-1.467917857814e+00-7.889971506126e-09
    1.682212928064e-10 1.000000000000e+00 2.050000000000e+03 0.000000000000e+00
    2.400000000000e+00 0.000000000000e+00-1.117587089539e-08 3.800000000000e+01
    1.872000000000e+05 4.000000000000e+00
30 19  4 23  6  0  0.0-9.155087172985e-05-6.934897101019e-12 0.000000000000e+00
    8.800000000000e+01 8.784375000000e+01 4.650908014701e-09-1.680709484593e+00
    4.416331648827e-06 3.902803058736e-03 9.480863809586e-06 5.153603183746e+03
    1.944000000000e+05-4.656612873077e-08 8.266073807268e-01-6.891787052155e-08
    9.414170438329e-01 1.876250000000e+02-2.993824596011e+00-7.996404510916e-09
   -1.157191058795e-10 1.000000000000e+00 2.050000000000e+03 0.000000000000e+00
    2.400000000000e+00 0.000000000000e+00 3.725290298462e-09 8.800000000000e+01
    1.872000000000e+05 4.000000000000e+00
23 19  4 23  6  0  0.0-1.891092397273e-04 1.477928890381e-12 0.000000000000e+00
    1.030000000000e+02-1.265625000000e+01 5.208074080047e-09-3.145148600749e-01
   -6.519258022308e-07 1.312002469786e-02 7.387250661850e-06 5.153595983505e+03
    1.944000000000e+05-8.381903171539e-08-2.826010520167e-01 1.452863216400e-07
    9.436131106222e-01 2.258437500000e+02-2.270908851669e+00-8.517854802842e-09
   -5.335936548889e-10 1.000000000000e+00 2.050000000000e+03 0.000000000000e+00
    2.400000000000e+00 0.000000000000e+00-2.048909664154e-08 1.030000000000e+02
    1.872000000000e+05 4.000000000000e+00
15 19  4 23  6  0  0.0-3.169076517224e-04 2.046363078989e-12 0.000000000000e+00
    5.700000000000e+01-1.768750000000e+01 5.660950087008e-09 2.140110289784e-01
   -7.171183824539e-07 1.128433900885e-02 6.971880793571e-06 5.153665840149e+03
    1.944000000000e+05-5.587935447693e-09-3.569369111008e-01 1.564621925354e-07
    9.282574608035e-01 2.248437500000e+02 7.714644523967e-01-8.666075262534e-09
   -5.253790270024e-10 1.000000000000e+00 2.050000000000e+03 0.000000000000e+00
    2.400000000000e+00 0.000000000000e+00-1.117587089539e-08 5.700000000000e+01
    1.872000000000e+05 4.000000000000e+00
13 19  4 23  6  0  0.0-6.666453555226e-05 1.591615728103e-12 0.000000000000e+00
    5.700000000000e+01-7.968750000000e+00 4.539474801632e-09 4.526433993287e-02
   -2.756714820862e-07 3.586027538404e-03 8.629634976387e-06 5.153661556244e+03
    1.944000000000e+05 2.980232238770e-08-1.411845092901e-01 3.725290298462e-09
    9.683585601124e-01 2.147500000000e+02 1.321026948361e+00-7.990689987169e-09
   -5.671664819034e-10 1.000000000000e+00 2.050000000000e+03 0.000000000000e+00
    2.400000000000e+00 0.000000000000e+00-1.117587089539e-08 5.700000000000e+01
    1.872000000000e+05 4.000000000000e+00
11 19  4 23  6  0  0.0-6.211013533175e-04 7.503331289627e-12 0.000000000000e+00
    4.800000000000e+01-8.475000000000e+01 5.498800475683e-09-1.790921795973e+00
   -4.066154360771e-06 1.655160740484e-02 8.888542652130e-06 5.153700902939e+03
    1.944000000000e+05-1.303851604462e-07-2.801334075060e+00 4.172325134277e-07
    9.094001497893e-01 1.791875000000e+02 1.878887956848e+00-8.458209461232e-09
    8.321775206769e-11 1.000000000000e+00 2.050000000000e+03 0.000000000000e+00
    2.400000000000e+00 0.000000000000e+00-1.257285475731e-08 4.800000000000e+01
    1.872000000000e+05 4.000000000000e+00
19 19  4 23  6  0  0.0-3.274311311543e-04 4.433786671143e-12 0.000000000000e+00
    5.800000000000e+01-1.114062500000e+02 3.961236429969e-09-2.447956197876e+00
   -5.796551704407e-06 9.548026486300e-03 5.207955837250e-06 5.153637403488e+03
    1.944000000000e+05 8.940696716309e-08 2.977533788977e+00 8.754432201385e-08
    9.821299384084e-01 2.816562500000e+02 1.380697195603e+00-7.849612682162e-09
   -5.607376426879e-11 1.000000000000e+00 2.050000000000e+03 0.000000000000e+00
    2.400000000000e+00 0.000000000000e+00-1.536682248116e-08 5.800000000000e+01
    1.872000000000e+05 4.000000000000e+00
10 19  4 23  6  0  0.0 6.568012759089e-05-1.000444171950e-11 0.000000000000e+00
    4.500000000000e+01 7.250000000000e+00 4.816986361103e-09 3.120935425225e+00
    3.911554813385e-07 4.506286233664e-03 6.932765245438e-06 5.153657785416e+03
    1.944000000000e+05-5.215406417847e-08-1.313528946073e+00-7.823109626770e-08
    9.623597079961e-01 2.485625000000e+02-2.698593537310e+00-7.991404302637e-09
    3.007268121931e-10 1.000000000000e+00 2.050000000000e+03 0.000000000000e+00
    2.400000000000e+00 0.000000000000e+00 1.862645149231e-09 4.500000000000e+01
    1.872000000000e+05 4.000000000000e+00
21 19  4 23  6  0  0.0-2.068579196930e-04 7.617018127348e-12 0.000000000000e+00
    1.050000000000e+02-6.628125000000e+01 4.466614623856e-09-2.901102920021e+00
   -3.460794687271e-06 2.468601160217e-02 9.952113032341e-06 5.153760204315e+03
    1.944000000000e+05 3.594905138016e-07-2.416226656053e+00 2.346932888031e-07
    9.481216705361e-01 1.712812500000e+02-1.450204418538e+00-7.590316167135e-09
    3.978737158944e-10 1.000000000000e+00 2.050000000000e+03 0.000000000000e+00
    2.400000000000e+00 0.000000000000e+00-1.024454832077e-08 1.050000000000e+02
    1.872000000000e+05 4.000000000000e+00
